STARLINK-36660          
1 67848U 26033AD  26069.83334490 -.01916078  00000+0 -12482-1 0  9995
2 67848  42.9989 264.2655 0001564 282.2098 193.3095 15.78159663  4840
STARLINK-36602          
1 67849U 26033AE  26068.99049806  .00275679  00000+0  12642-2 0  9997
2 67849  42.9975 269.4026 0002139 256.5139 103.5494 15.82121863  4677
STARLINK-36840          
1 67850U 26034A   26069.80635394  .00323392  00000+0  15722-2 0  9992
2 67850  53.1579 205.7612 0000718  76.4465 283.6638 15.80999388  4111
STARLINK-36348          
1 67851U 26034B   26069.74238682  .00269474  00000+0  13208-2 0  9992
2 67851  53.1579 206.0734 0001059  60.3714 299.7415 15.80969642  4109
STARLINK-36276          
1 67852U 26034C   26069.80485669  .00232810  00000+0  11488-2 0  9991
2 67852  53.1582 205.7513 0000922  68.9341 291.1780 15.80923963  4111
STARLINK-36785          
1 67853U 26034D   26069.86732379  .00264968  00000+0  12987-2 0  9995
2 67853  53.1583 205.4293 0001176  54.6782 305.4350 15.80982251  4126
STARLINK-36608          
1 67854U 26034E   26069.86657294  .00237210  00000+0  11668-2 0  9993
2 67854  53.1583 205.4240 0000782  58.5585 301.5514 15.80980779  4116
STARLINK-36838          
1 67855U 26034F   26069.86582339  .00291984  00000+0  14263-2 0  9993
2 67855  53.1582 205.4176 0001343  54.1707 305.9441 15.80981048  4124
STARLINK-36843          
1 67856U 26034G   26069.86432131  .00368255  00000+0  17788-2 0  9999
2 67856  53.1580 205.4083 0000858  65.3147 294.7965 15.81019625  4122
STARLINK-36828          
1 67857U 26034H   26069.86507275  .00266178  00000+0  13042-2 0  9992
2 67857  53.1579 205.4139 0000748  62.4326 297.6773 15.80985135  4124
STARLINK-36837          
1 67858U 26034J   26069.73713546  .00290792  00000+0  14208-2 0  9993
2 67858  53.1584 206.0369 0001018  77.1895 282.9241 15.80978469  4105
STARLINK-36393          
1 67859U 26034K   26069.73638446  .00177874  00000+0  88349-3 0  9992
2 67859  53.1584 206.0327 0000673  89.9444 270.1656 15.80941810  4106
STARLINK-35873          
1 67860U 26034L   26069.79885438  .00201948  00000+0  99951-3 0  9996
2 67860  53.1585 205.7103 0001046  64.1515 295.9615 15.80947724  4140
STARLINK-36325          
1 67861U 26034M   26069.79810507  .00223607  00000+0  11037-2 0  9996
2 67861  53.1584 205.7056 0001173  57.8086 302.3051 15.80945048  4111
STARLINK-36332          
1 67862U 26034N   26069.79735252  .00220489  00000+0  10880-2 0  9990
2 67862  53.1583 205.7009 0000979 122.4744 237.6374 15.80959126  4112
STARLINK-36835          
1 67863U 26034P   26069.79660450  .00259680  00000+0  12746-2 0  9996
2 67863  53.1584 205.6936 0000930  71.5929 288.5195 15.80964852  4116
STARLINK-36831          
1 67864U 26034Q   26069.79585232  .00290465  00000+0  14191-2 0  9993
2 67864  53.1584 205.6889 0001097  58.9403 301.1727 15.80982091  4113
STARLINK-36738          
1 67865U 26034R   26069.79510685  .00141931  00000+0  70975-3 0  9990
2 67865  53.1589 205.6839 0001648 110.2590 249.8610 15.80906692  4117
STARLINK-36780          
1 67866U 26034S   26069.79435269  .00278032  00000+0  13607-2 0  9996
2 67866  53.1587 205.6782 0001146 138.5198 221.5912 15.80977856  4115
STARLINK-36761          
1 67867U 26034T   26069.73038777  .00147372  00000+0  73637-3 0  9996
2 67867  53.1591 205.9904 0001491 103.0486 257.0703 15.80906814  4107
STARLINK-36762          
1 67868U 26034U   26069.79285222  .00179985  00000+0  89365-3 0  9992
2 67868  53.1588 205.6677 0000856 101.9856 258.1262 15.80943269  4118
STARLINK-36779          
1 67869U 26034V   26069.79210328  .00202034  00000+0  10004-2 0  9993
2 67869  53.1589 205.6629 0001069  85.5043 274.6101 15.80938204  4117
STARLINK-36770          
1 67870U 26034W   26069.85382235  .00259503  00000+0  12733-2 0  9993
2 67870  53.1592 205.3352 0001347  75.7392 284.3780 15.80973312  4121
STARLINK-36769          
1 67871U 26034X   26069.79135220  .00346237  00000+0  16787-2 0  9991
2 67871  53.1593 205.6580 0000730  76.5223 283.5881 15.80996739  4116
STARLINK-36786          
1 67872U 26034Y   26069.78985342  .00257882  00000+0  12663-2 0  9995
2 67872  53.1591 205.6480 0000534  68.9090 291.1989 15.80960590  4113
STARLINK-36783          
1 67873U 26034Z   26069.78910330  .00289085  00000+0  14129-2 0  9990
2 67873  53.1593 205.6424 0000830  55.6184 304.4917 15.80976835  4118
STARLINK-36730          
1 67874U 26034AA  26069.78835430  .00295811  00000+0  14450-2 0  9999
2 67874  53.1591 205.6382 0000934  83.4847 276.6282 15.80970606  4115
STARLINK-36727          
1 67875U 26034AB  26069.78760293  .00172147  00000+0  85608-3 0  9994
2 67875  53.1593 205.6319 0000822  61.1590 298.9515 15.80932760  4117
STARLINK-36743          
1 67876U 26034AC  26069.78685662  .00147626  00000+0  73746-3 0  9995
2 67876  53.1595 205.6260 0001238  85.7012 274.4153 15.80911392  4113
STARLINK-36784          
1 67877U 26034AD  26069.78610442  .00135154  00000+0  67618-3 0  9994
2 67877  53.1597 205.6209 0001378  54.2810 305.8340 15.80919185  4116
STARLINK-36689          
1 67878U 26034AE  26069.78535102  .00286996  00000+0  14029-2 0  9992
2 67878  53.1588 205.6161 0000750  73.3037 286.8068 15.80979223  4114
STARLINK-36818          
1 67879U 26035A   26069.83334490 -.01115783  00000+0 -54763-2 0  9994
2 67879  97.2745   2.2318 0001254  85.3643 144.3888 15.84842292  3947
STARLINK-36821          
1 67880U 26035B   26069.83334490 -.01127081  00000+0 -55345-2 0  9997
2 67880  97.2737   2.2352 0001306  82.8278 155.5323 15.84859734  3949
STARLINK-36808          
1 67881U 26035C   26069.83334490 -.01122266  00000+0 -54964-2 0  9994
2 67881  97.2740   2.2332 0001177  90.3704 143.3311 15.84903576  3942
STARLINK-36817          
1 67882U 26035D   26069.83334490 -.01140626  00000+0 -56313-2 0  9995
2 67882  97.2723   2.2378 0001282  89.1267 158.4762 15.84782783  3943
STARLINK-36856          
1 67883U 26035E   26069.83334490 -.01133550  00000+0 -55862-2 0  9992
2 67883  97.2732   2.2366 0001219  80.6239 162.4725 15.84803128  3947
STARLINK-36842          
1 67884U 26035F   26069.83334490 -.01142345  00000+0 -56419-2 0  9994
2 67884  97.2722   2.2397 0001218  78.4931 173.5068 15.84779891  3946
STARLINK-36826          
1 67885U 26035G   26069.83334490 -.01144330  00000+0 -56419-2 0  9991
2 67885  97.2719   2.2414 0001215  86.2178 169.8865 15.84821055  3943
STARLINK-36390          
1 67886U 26035H   26069.83334490 -.01180797  00000+0 -57367-2 0  9992
2 67886  97.2712   2.2430 0001245  92.1122 168.7218 15.84775683  3993
STARLINK-36368          
1 67887U 26035J   26069.83334490 -.01230812  00000+0 -60146-2 0  9996
2 67887  97.2710   2.2447 0001195  88.4805 176.9887 15.84759952  3949
STARLINK-36801          
1 67888U 26035K   26069.83334490 -.01272686  00000+0 -62516-2 0  9995
2 67888  97.2704   2.2464 0001282 100.3589 169.6922 15.84739408  3945
STARLINK-36372          
1 67889U 26035L   26069.83334490 -.01298336  00000+0 -64155-2 0  9997
2 67889  97.2693   2.2494 0001283  99.0111 180.0801 15.84670897  3941
STARLINK-36363          
1 67890U 26035M   26069.83334490 -.01284764  00000+0 -63443-2 0  9998
2 67890  97.2703   2.2486 0001396  93.8894 180.9589 15.84654080  3949
STARLINK-36816          
1 67891U 26035N   26069.83334490 -.01522248  00000+0 -79013-2 0  9991
2 67891  97.2667   2.2725 0001257  84.2171 255.6090 15.83632831  3837
STARLINK-36813          
1 67892U 26035P   26069.83334490 -.01360925  00000+0 -69782-2 0  9996
2 67892  97.2664   2.2601 0001146  94.0642 218.1837 15.84036843  3944
STARLINK-36803          
1 67893U 26035Q   26069.83334490 -.01301174  00000+0 -64672-2 0  9991
2 67893  97.2692   2.2514 0001229  95.8528 188.1317 15.84555920  3944
STARLINK-36846          
1 67894U 26035R   26069.83334490 -.01320280  00000+0 -66501-2 0  9994
2 67894  97.2683   2.2551 0001288  99.7741 193.9802 15.84319046  3941
STARLINK-36866          
1 67895U 26035S   26069.83334490 -.01322864  00000+0 -66888-2 0  9993
2 67895  97.2682   2.2570 0001099  82.3820 215.9987 15.84246459  3944
STARLINK-36877          
1 67896U 26035T   26069.83334490 -.01317077  00000+0 -65981-2 0  9997
2 67896  97.2685   2.2529 0001195  82.9191 206.0368 15.84426205  3949
STARLINK-36870          
1 67897U 26035U   26069.83334490 -.01344285  00000+0 -68469-2 0  9993
2 67897  97.2675   2.2581 0001254 103.2080 199.9833 15.84139018  3947
STARLINK-36810          
1 67898U 26035V   26069.83334490 -.01349127  00000+0 -68892-2 0  9994
2 67898  97.2674   2.2599 0001265  75.6741 232.0005 15.84095809  3943
STARLINK-36878          
1 67899U 26035W   26069.83334490 -.01358135  00000+0 -69670-2 0  9999
2 67899  97.2668   2.2635 0001246  93.8127 222.8095 15.84020068  3948
STARLINK-36361          
1 67900U 26035X   26069.83334490 -.01366766  00000+0 -70371-2 0  9991
2 67900  97.2666   2.2653 0001339  96.3849 224.8231 15.83960960  3948
STARLINK-36336          
1 67901U 26035Y   26069.83334490 -.01519108  00000+0 -78251-2 0  9997
2 67901  97.2675   2.2723 0001222  89.0770 245.9637 15.83787693  3999
STARLINK-36876          
1 67902U 26035Z   26069.83334490 -.01379416  00000+0 -71196-2 0  9995
2 67902  97.2673   2.2687 0001195  94.1718 231.4703 15.83939655  3941
STARLINK-36257          
1 67903U 26035AA  26069.83334490 -.01410804  00000+0 -73157-2 0  9992
2 67903  97.2671   2.2696 0001128  75.9940 254.1420 15.83912760  3991
STARLINK-36814          
1 67904U 26036A   26069.83334490 -.01923200  00000+0 -16914-1 0  9990
2 67904  42.9994 242.9382 0001433 271.4060 309.8945 15.70829622  3830
STARLINK-36729          
1 67905U 26036B   26069.84774032  .00425765  00000+0  20179-2 0  9991
2 67905  42.9989 242.7047 0004749 343.4556  16.6160 15.81012951  3859
STARLINK-36763          
1 67906U 26036C   26069.78363990  .00174059  00000+0  81596-3 0  9990
2 67906  42.9985 243.0836 0002474 307.6294  52.4353 15.81926645  3845
